#aV2021  5  5  0  0  0.00000000     288 DD+AD WGS84 FIT  NGA
## 2156 259200.00000000   300.00000000 59339 0.0000000000000
+   31     1  2  3  4  5  6  7  8  9 10 12 13 14 15 16 17 18
+         19 20 21 22 23 24 25 26 27 28 29 30 31 32  0  0  0
+          0  0  0  0  0  0  0  0  0  0  0  0  0  0  0  0  0
+          0  0  0  0  0  0  0  0  0  0  0  0  0  0  0  0  0
+          0  0  0  0  0  0  0  0  0  0  0  0  0  0  0  0  0
++         2  2  2  2  2  2  2  2  2  2  2  2  2  2  2  2  2
++         2  2  2  2  2  2  2  2  2  2  2  2  2  2  0  0  0
++         0  0  0  0  0  0  0  0  0  0  0  0  0  0  0  0  0
++         0  0  0  0  0  0  0  0  0  0  0  0  0  0  0  0  0
++         0  0  0  0  0  0  0  0  0  0  0  0  0  0  0  0  0
%c cc cc ccc ccc cccc cccc cccc cccc ccccc ccccc ccccc ccccc
%c cc cc ccc ccc cccc cccc cccc cccc ccccc ccccc ccccc ccccc
%f  0.0000000  0.000000000  0.00000000000  0.000000000000000
%f  0.0000000  0.000000000  0.00000000000  0.000000000000000
%i    0    0    0    0      0      0      0      0         0
%i    0    0    0    0      0      0      0      0         0
/*      NGA, ST. LOUIS,MO.                                  
/*   EPHEMERIS COMPUTED FROM 2 DAYS OF DATA                 
/*   EPOCHA v6 SMOOTHER                                     
/*   G2139 IERS2010 SATIGS SATAPC                           
*  2021  5  5  2 45  0.00000000
P  1 -10767.741616  20345.571530 -13190.444721    698.162153                    
V  1 -13800.562002   9090.502852  26125.228661     -0.106540                    
P  2  21420.127671 -12918.378970  -8344.523005   -601.515119                    
V  2  -6335.580974   9939.909918 -29321.242017     -0.032617                    
P  3  -1962.636645  15194.713702 -21786.038147   -155.228476                    
V  3 -25912.542643  -9009.085226  -3854.869459     -0.104386                    
P  4  -2031.076816  25178.906887  -8106.095981   -194.935973                    
V  4  -4153.378685  -9821.584749 -29490.977162     -0.016369                    
P  5  18227.919742  -7391.299549  17783.812324    -41.008105                    
V  5  21264.726520   8465.348828 -17940.755832     -0.011067                    
P  6  19675.656528  -1151.954586 -17775.636052     12.774665                    
V  6 -16480.662977  15527.331440 -19125.191604      0.034394                    
P  7   3084.034705  16628.444707  20713.843050    141.774074                    
V  7 -20453.390693  15557.580912 -10098.050837      0.109517                    
P  8  -7310.662347  19733.470113  16006.128673    -19.998378                    
V  8  -5931.975559 -19669.336472  21826.257301     -0.014581                    
P  9   6756.365639  25566.268057   2297.146428   -343.461433                    
V  9  -2427.979528   3534.432312 -31420.014729     -0.024666                    
P 10 -23394.158233 -11927.710100   4968.551465   -115.521676                    
V 10   6515.306456    -91.247922  30930.771873     -0.076901                    
P 12   5506.231652 -14017.620390 -22134.898416    -36.766047                    
V 12  25112.112332  11084.386924   -640.536952     -0.051343                    
P 13  13084.347984 -11623.823923  19806.495233    128.070510                    
V 13   2404.065615  25371.802035  13342.818037      0.047092                    
P 14  22491.588412  13161.004573   5202.211899     89.782838                    
V 14  -7195.671483    112.064223  30735.975377     -0.043763                    
P 15   5447.092359 -20766.505493  15046.774500   -151.600358                    
V 15   8697.638362  18241.924668  21867.394054      0.026168                    
P 16 -21464.861150   1738.890813  15598.904937   -320.134274                    
V 16 -17567.559062  -9765.482701 -22280.305745     -0.059915                    
P 17  12730.079867  16551.324187 -15986.770037    437.242260                    
V 17    924.331232  21092.754131  21994.048624      0.061580                    
P 18  -6034.217152 -14228.112880  21584.170909    351.036335                    
V 18  21573.380024 -16921.198440  -5182.686065     -0.006386                    
P 19  14704.374665   7692.057002 -21049.876368     -4.174750                    
V 19   1318.505749  25962.418086  10444.287163      0.049980                    
P 20   3637.007281 -15266.198850  21375.157135    522.508078                    
V 20  26754.539401   5608.488945   -835.302779     -0.003771                    
P 21 -16173.895916  20127.447781  -4289.673726    115.867080                    
V 21  -6945.181429   2085.376527  31357.330627      0.027191                    
P 22 -12201.572456  12160.024287 -19975.121152   -622.125819                    
V 22 -24834.651962  -7623.668126  10615.137387      0.092160                    
P 23 -15690.779207 -15776.217897  14519.285835    109.189036                    
V 23  18151.259418   3852.950499  23722.351216     -0.028229                    
P 24  13541.215647 -21295.382214  -7853.887090     57.195514                    
V 24   9552.197398  -4230.982497  29236.131473      0.256018                    
P 25  -8856.894190 -17036.848405 -18728.745882    131.215760                    
V 25  22219.617036   6583.090731 -16466.136205      0.071424                    
P 26 -25572.260133  -2413.540992   7231.636710     81.113831                    
V 26  -7913.005985  -5595.418201 -29348.499190      0.050393                    
P 27 -13071.196905   8517.161665  21261.829052   -124.528277                    
V 27  -5628.118975 -26858.233450   7598.144645     -0.066364                    
P 28  23639.619392  11871.259477   1082.408492    576.391318                    
V 28  -1748.151316   2035.760699  32111.010430     -0.059987                    
P 29  -4497.463369 -26021.647320   2553.571557   -341.570979                    
V 29   1742.179811  -3505.084498 -32076.914910     -0.065541                    
P 30  15202.065989   7230.935681  20647.102471   -421.847617                    
V 30 -19822.779158  17040.195946   8417.268490     -0.050545                    
P 31 -21551.007979   3250.798488 -15575.744185   -115.458316                    
V 31  14053.254264 -13566.209192 -21939.734539     -0.022071                    
P 32 -14881.948607 -13775.036310 -17130.764715     21.686055                    
V 32  -2365.220806 -21853.108858  19331.994809     -0.004631                    
EOF
